IRIDIUM 106             
1 41917U 17003A   23306.80163697  .00000151  00000+0  46855-4 0  9995
2 41917  86.3940 128.6631 0002082  95.4386 264.7048 14.34219245355984
IRIDIUM 103             
1 41918U 17003B   23306.92850485  .00000146  00000+0  44917-4 0  9998
2 41918  86.3939 128.5127 0001726  90.0923 270.0470 14.34218171356026
IRIDIUM 109             
1 41919U 17003C   23306.93485407  .00000148  00000+0  45619-4 0  9990
2 41919  86.3942 128.5536 0002042  82.4835 277.6592 14.34218086355992
IRIDIUM 102             
1 41920U 17003D   23306.90315060  .00000144  00000+0  44488-4 0  9995
2 41920  86.3940 128.5109 0002172  83.9737 276.1706 14.34213834356076
IRIDIUM 105             
1 41921U 17003E   23306.87382545  .00000394  00000+0  13364-3 0  9999
2 41921  86.3932  96.9299 0001991  93.1489 266.9935 14.34213715357925
IRIDIUM 104             
1 41922U 17003F   23306.91582003  .00000147  00000+0  45286-4 0  9991
2 41922  86.3941 128.5337 0001870  85.5800 274.5609 14.34217412356064
IRIDIUM 114             
1 41923U 17003G   23306.92215281  .00000113  00000+0  33207-4 0  9997
2 41923  86.3941 128.5176 0002293  95.8448 264.3009 14.34216883356048
IRIDIUM 108             
1 41924U 17003H   23306.67136016  .00000341  00000+0  11467-3 0  9994
2 41924  86.3926  96.9539 0002036 100.2170 259.9255 14.34221849357863
